{
  "links" : {
    "next" : "https://api.nasa.gov/neo/rest/v1/feed?start_date=1995-03-23&end_date=1995-03-23&detailed=true&api_key=t0TVs3DtDT2H8Oy2Zy8m2eVrNsAVKAexjcZXUckd",
    "prev" : "https://api.nasa.gov/neo/rest/v1/feed?start_date=1995-03-21&end_date=1995-03-21&detailed=true&api_key=t0TVs3DtDT2H8Oy2Zy8m2eVrNsAVKAexjcZXUckd",
    "self" : "https://api.nasa.gov/neo/rest/v1/feed?start_date=1995-03-22&end_date=1995-03-22&detailed=true&api_key=t0TVs3DtDT2H8Oy2Zy8m2eVrNsAVKAexjcZXUckd"
  },
  "element_count" : 8,
  "near_earth_objects" : {
    "1995-03-22" : [ {
      "links" : {
        "self" : "https://api.nasa.gov/neo/rest/v1/neo/2267221?api_key=t0TVs3DtDT2H8Oy2Zy8m2eVrNsAVKAexjcZXUckd"
      },
      "neo_reference_id" : "2267221",
      "name" : "267221 (2001 AD2)",
      "nasa_jpl_url" : "http://ssd.jpl.nasa.gov/sbdb.cgi?sstr=2267221",
      "absolute_magnitude_h" : 19.8,
      "estimated_diameter" : {
        "kilometers" : {
          "estimated_diameter_min" : 0.2914439045,
          "estimated_diameter_max" : 0.6516883822
        },
        "meters" : {
          "estimated_diameter_min" : 291.4439045349,
          "estimated_diameter_max" : 651.6883821679
        },
        "miles" : {
          "estimated_diameter_min" : 0.1810947904,
          "estimated_diameter_max" : 0.4049402617
        },
        "feet" : {
          "estimated_diameter_min" : 956.1808197541,
          "estimated_diameter_max" : 2138.0853117517
        }
      },
      "is_potentially_hazardous_asteroid" : true,
      "close_approach_data" : [ {
        "close_approach_date" : "1995-03-22",
        "epoch_date_close_approach" : 795859200000,
        "relative_velocity" : {
          "kilometers_per_second" : "14.6506071817",
          "kilometers_per_hour" : "52742.1858542341",
          "miles_per_hour" : "32771.9432048156"
        },
        "miss_distance" : {
          "astronomical" : "0.49345027",
          "lunar" : "191.9521636963",
          "kilometers" : "73819112",
          "miles" : "45869068"
        },
        "orbiting_body" : "Earth"
      } ],
      "orbital_data" : {
        "orbit_id" : "80",
        "orbit_determination_date" : "2017-08-05 06:18:39",
        "orbit_uncertainty" : "0",
        "minimum_orbit_intersection" : ".00864628",
        "jupiter_tisserand_invariant" : "5.679",
        "epoch_osculation" : "2458000.5",
        "eccentricity" : ".6596701710312648",
        "semi_major_axis" : "1.039069958449247",
        "inclination" : "1.660280612530236",
        "ascending_node_longitude" : "211.1661458545495",
        "orbital_period" : "386.8704956796536",
        "perihelion_distance" : ".3536265012455829",
        "perihelion_argument" : "111.2704877710451",
        "aphelion_distance" : "1.72451341565291",
        "perihelion_time" : "2458022.991311085227",
        "mean_anomaly" : "339.0708464948791",
        "mean_motion" : ".9305439520983694",
        "equinox" : "J2000"
      }
    }, {
      "links" : {
        "self" : "https://api.nasa.gov/neo/rest/v1/neo/2382875?api_key=t0TVs3DtDT2H8Oy2Zy8m2eVrNsAVKAexjcZXUckd"
      },
      "neo_reference_id" : "2382875",
      "name" : "382875 (2004 KE1)",
      "nasa_jpl_url" : "http://ssd.jpl.nasa.gov/sbdb.cgi?sstr=2382875",
      "absolute_magnitude_h" : 21.7,
      "estimated_diameter" : {
        "kilometers" : {
          "estimated_diameter_min" : 0.1214940408,
          "estimated_diameter_max" : 0.2716689341
        },
        "meters" : {
          "estimated_diameter_min" : 121.4940407996,
          "estimated_diameter_max" : 271.6689340891
        },
        "miles" : {
          "estimated_diameter_min" : 0.0754928736,
          "estimated_diameter_max" : 0.1688071972
        },
        "feet" : {
          "estimated_diameter_min" : 398.6025088171,
          "estimated_diameter_max" : 891.3023057169
        }
      },
      "is_potentially_hazardous_asteroid" : false,
      "close_approach_data" : [ {
        "close_approach_date" : "1995-03-22",
        "epoch_date_close_approach" : 795859200000,
        "relative_velocity" : {
          "kilometers_per_second" : "7.5148753568",
          "kilometers_per_hour" : "27053.5512844418",
          "miles_per_hour" : "16810.0246856022"
        },
        "miss_distance" : {
          "astronomical" : "0.4991803786",
          "lunar" : "194.1811676025",
          "kilometers" : "74676320",
          "miles" : "46401716"
        },
        "orbiting_body" : "Earth"
      } ],
      "orbital_data" : {
        "orbit_id" : "39",
        "orbit_determination_date" : "2017-04-06 09:22:12",
        "orbit_uncertainty" : "0",
        "minimum_orbit_intersection" : ".072723",
        "jupiter_tisserand_invariant" : "4.988",
        "epoch_osculation" : "2458000.5",
        "eccentricity" : ".1806949354384842",
        "semi_major_axis" : "1.298712853884236",
        "inclination" : "2.883848267500705",
        "ascending_node_longitude" : "42.7745945849694",
        "orbital_period" : "540.5901587784003",
        "perihelion_distance" : "1.064042018598494",
        "perihelion_argument" : "283.6789058830172",
        "aphelion_distance" : "1.533383689169977",
        "perihelion_time" : "2458116.955251423414",
        "mean_anomaly" : "282.4479213473536",
        "mean_motion" : ".6659388709803942",
        "equinox" : "J2000"
      }
    }, {
      "links" : {
        "self" : "https://api.nasa.gov/neo/rest/v1/neo/2396793?api_key=t0TVs3DtDT2H8Oy2Zy8m2eVrNsAVKAexjcZXUckd"
      },
      "neo_reference_id" : "2396793",
      "name" : "396793 (2004 JN2)",
      "nasa_jpl_url" : "http://ssd.jpl.nasa.gov/sbdb.cgi?sstr=2396793",
      "absolute_magnitude_h" : 20.1,
      "estimated_diameter" : {
        "kilometers" : {
          "estimated_diameter_min" : 0.2538370294,
          "estimated_diameter_max" : 0.5675968529
        },
        "meters" : {
          "estimated_diameter_min" : 253.8370293645,
          "estimated_diameter_max" : 567.5968528656
        },
        "miles" : {
          "estimated_diameter_min" : 0.1577269688,
          "estimated_diameter_max" : 0.3526882241
        },
        "feet" : {
          "estimated_diameter_min" : 832.7986794202,
          "estimated_diameter_max" : 1862.1944587557
        }
      },
      "is_potentially_hazardous_asteroid" : false,
      "close_approach_data" : [ {
        "close_approach_date" : "1995-03-22",
        "epoch_date_close_approach" : 795859200000,
        "relative_velocity" : {
          "kilometers_per_second" : "14.3828211868",
          "kilometers_per_hour" : "51778.1562725826",
          "miles_per_hour" : "32172.9327128167"
        },
        "miss_distance" : {
          "astronomical" : "0.4209661835",
          "lunar" : "163.7558441162",
          "kilometers" : "62975644",
          "miles" : "39131252"
        },
        "orbiting_body" : "Earth"
      } ],
      "orbital_data" : {
        "orbit_id" : "27",
        "orbit_determination_date" : "2017-04-06 09:21:55",
        "orbit_uncertainty" : "0",
        "minimum_orbit_intersection" : ".286119",
        "jupiter_tisserand_invariant" : "5.550",
        "epoch_osculation" : "2458000.5",
        "eccentricity" : ".6085291129034922",
        "semi_major_axis" : "1.067729565398203",
        "inclination" : "19.76609421451883",
        "ascending_node_longitude" : "228.3483095782694",
        "orbital_period" : "402.9863441432185",
        "perihelion_distance" : ".4179850401456034",
        "perihelion_argument" : "179.9055930928364",
        "aphelion_distance" : "1.717474090650803",
        "perihelion_time" : "2458175.961956843295",
        "mean_anomaly" : "203.2544790124766",
        "mean_motion" : ".8933305190908865",
        "equinox" : "J2000"
      }
    } ]
  }
}